ONEWEB-0616             
1 55157U 23004T   23257.91667824 -.00027326  00000+0 -63858-1 0  9996
2 55157  88.1149 204.7803 0001895  69.5776 229.0595 13.24443978 35176
ONEWEB-0617             
1 55158U 23004U   23257.40583768 -.00000266  00000+0 -78585-3 0  9994
2 55158  87.8942 221.0797 0001294  72.4040 287.7229 13.11413422 33909
ONEWEB-0618             
1 55159U 23004V   23257.36023040  .00000380  00000+0  14922-3 0  9992
2 55159  86.9158 191.3581 0015648  98.3741 261.9226 14.26654548 35874
ONEWEB-0619             
1 55160U 23004W   23257.75972346 -.00014976  00000+0 -31455-1 0  9995
2 55160  87.9647 205.8154 0001335 155.5329 204.5875 13.31481599 35055
ONEWEB-0620             
1 55161U 23004X   23257.40058453 -.00000437  00000+0 -12694-2 0  9994
2 55161  87.8951 221.0809 0001510  65.1617 294.9668 13.11427745 33873
ONEWEB-0621             
1 55162U 23004Y   23257.42703526  .00000559  00000+0  15401-2 0  9997
2 55162  87.8926 221.0683 0001490 102.9770 257.1525 13.11411740 33852
ONEWEB-0622             
1 55163U 23004Z   23257.43445431  .00000576  00000+0  15896-2 0  9994
2 55163  87.8932 221.0759 0001018  58.2942 301.8285 13.11423601 33842
ONEWEB-0623             
1 55164U 23004AA  23257.91667824  .00000013  00000+0  00000+0 0  9994
2 55164  87.9389 205.8504 0004479  98.3668 112.5577 13.24534444 35061
